STARLINK-4352           
1 53047U 22077E   22216.16667824 -.00050993  00000+0 -86002-3 0  9996
2 53047  97.6580  35.7489 0001425  70.2475 174.6733 15.51756913  4366
STARLINK-4355           
1 53048U 22077F   22216.16667824 -.00051125  00000+0 -85923-3 0  9996
2 53048  97.6567  35.7486 0001950  66.5486 177.4242 15.51854323  4362
STARLINK-4345           
1 53049U 22077G   22216.16667824  .00053759  00000+0  89865-3 0  9999
2 53049  97.6577  35.7469 0001914  73.0177 174.1490 15.51744641  3779
STARLINK-4343           
1 53050U 22077H   22216.16667824  .00132736  00000+0  21958-2 0  9992
2 53050  97.6584  35.7497 0001350  76.3481 169.0080 15.51726425  4362
STARLINK-4336           
1 53051U 22077J   22215.91668981  .00077339  00000+0  12917-2 0  9992
2 53051  97.6581  35.4804 0001564  77.2825 216.0273 15.51669671  1305
STARLINK-4341           
1 53052U 22077K   22216.16667824  .00038709  00000+0  64941-3 0  9999
2 53052  97.6565  35.7469 0001655  75.3932 171.0642 15.51717710  4364
STARLINK-4337           
1 53053U 22077L   22216.16667824  .00237743  00000+0  38960-2 0  9990
2 53053  97.6577  35.7481 0001945  79.8580 170.2398 15.51606460  4360
STARLINK-4339           
1 53054U 22077M   22216.16667824 -.00050009  00000+0 -84233-3 0  9996
2 53054  97.6582  35.7480 0001509  75.4852 172.5182 15.51788319  4366
STARLINK-4338           
1 53055U 22077N   22216.16667824  .00206183  00000+0  33947-2 0  9996
2 53055  97.6575  35.7488 0001718  69.8839 182.0063 15.51589300  4364
STARLINK-4314           
1 53056U 22077P   22216.16667824  .00239286  00000+0  39194-2 0  9997
2 53056  97.6581  35.7483 0001779  76.8644 172.4003 15.51614405  4368
STARLINK-4252           
1 53057U 22077Q   22216.16667824  .00280518  00000+0  45921-2 0  9997
2 53057  97.6575  35.7494 0001958  85.7978 167.5631 15.51480947  4366
STARLINK-4317           
1 53058U 22077R   22215.91668981  .00078918  00000+0  13161-2 0  9995
2 53058  97.6570  35.4811 0001503  76.8936 218.7504 15.51705382  1305
STARLINK-4320           
1 53059U 22077S   22215.91668981 -.00007179  00000+0 -11879-3 0  9994
2 53059  97.6576  35.4826 0001662  80.5586 218.9518 15.51788983  1302
STARLINK-4305           
1 53060U 22077T   22215.91668981  .00192112  00000+0  31698-2 0  9996
2 53060  97.6569  35.4806 0001794  82.5459 214.6881 15.51580541  1307
STARLINK-4308           
1 53061U 22077U   22216.16667824  .00157463  00000+0  26095-2 0  9995
2 53061  97.6577  35.7494 0001424  76.3074 180.4332 15.51584548  4368
STARLINK-4311           
1 53062U 22077V   22216.16667824  .00284879  00000+0  46586-2 0  9995
2 53062  97.6576  35.7483 0001923  76.2628 177.9698 15.51494619  4369
STARLINK-4307           
1 53063U 22077W   22216.16667824  .00228957  00000+0  37617-2 0  9996
2 53063  97.6584  35.7723 0002094  87.5037 205.0448 15.51565701  4362
STARLINK-4313           
1 53064U 22077X   22216.16667824  .00148631  00000+0  24661-2 0  9992
2 53064  97.6578  35.7495 0001848  75.7019 180.2557 15.51582969  4367
STARLINK-4312           
1 53065U 22077Y   22216.16667824 -.00109595  00000+0 -18690-2 0  9996
2 53065  97.6577  35.7501 0001959  82.4340 176.6933 15.51680158  4366
STARLINK-4309           
1 53066U 22077Z   22216.16667824  .00111383  00000+0  18616-2 0  9991
2 53066  97.6575  35.7500 0001141  94.6804 162.8946 15.51517752  4367
STARLINK-4306           
1 53067U 22077AA  22216.16667824 -.00203131  00000+0 -34914-2 0  9996
2 53067  97.6565  35.7481 0001696  58.6726 202.5228 15.51800856  4368
STARLINK-4325           
1 53068U 22077AB  22216.16667824 -.00269886  00000+0 -46951-2 0  9990
2 53068  97.6578  35.7494 0001296  75.3753 184.5743 15.51700824  4364
STARLINK-4323           
1 53069U 22077AC  22216.16667824 -.00518976  00000+0 -92362-2 0  9995
2 53069  97.6557  35.7420 0001662  83.3336 179.5413 15.51933708  4361
STARLINK-4342           
1 53070U 22077AD  22216.16667824 -.00076090  00000+0 -12880-2 0  9990
2 53070  97.6581  35.7498 0001666  66.0949 194.2732 15.51760307  4368
STARLINK-4328           
1 53071U 22077AE  22215.91668981  .00056508  00000+0  94516-3 0  9995
2 53071  97.6576  35.4810 0001491  83.6619 225.3263 15.51716352  1300
STARLINK-4344           
1 53072U 22077AF  22216.16667824 -.00096948  00000+0 -16420-2 0  9990
2 53072  97.6559  35.7481 0001543  67.8604 194.3474 15.51826258  4360
STARLINK-4346           
1 53073U 22077AG  22216.16667824 -.00096366  00000+0 -16331-2 0  9996
2 53073  97.6570  35.7462 0001629  79.4015 186.7628 15.51807286  4369
STARLINK-4310           
1 53074U 22077AH  22215.91668981  .00079217  00000+0  13190-2 0  9998
2 53074  97.6578  35.4813 0001163  90.6767 217.4593 15.51749143  1308
STARLINK-4348           
1 53075U 22077AJ  22216.16667824 -.00073278  00000+0 -12353-2 0  9995
2 53075  97.6558  35.7445 0001610  83.7089 183.8619 15.51864488  4362
STARLINK-4347           
1 53076U 22077AK  22216.16667824 -.00049896  00000+0 -83952-3 0  9999
2 53076  97.6562  35.7467 0001414  73.5928 191.7543 15.51818285  4361
STARLINK-4315           
1 53077U 22077AL  22216.16667824 -.00050210  00000+0 -84459-3 0  9995
2 53077  97.6560  35.7443 0001985  80.3900 188.8346 15.51825522  4363
STARLINK-4322           
1 53078U 22077AM  22216.25001157 -.00014167  00000+0 -23633-3 0  9995
2 53078  97.6560  35.8346 0001615  72.8693 299.1956 15.51787442  4374
STARLINK-4327           
1 53079U 22077AN  22216.16667824 -.00050161  00000+0 -84283-3 0  9997
2 53079  97.6556  35.7426 0001462  74.1571 195.6048 15.51857468  4365
STARLINK-4330           
1 53080U 22077AP  22216.16667824 -.00050411  00000+0 -84857-3 0  9994
2 53080  97.6565  35.7452 0001511  65.2580 202.8803 15.51807791  4366
STARLINK-4326           
1 53081U 22077AQ  22216.16667824 -.00049817  00000+0 -83841-3 0  9995
2 53081  97.6564  35.7421 0001569  86.7038 184.8452 15.51810029  4368
STARLINK-4321           
1 53082U 22077AR  22216.16667824 -.00049453  00000+0 -83199-3 0  9998
2 53082  97.6579  35.7440 0001305  79.6667 191.1239 15.51819217  4365
STARLINK-4251           
1 53083U 22077AS  22216.25001157 -.00006830  00000+0 -11301-3 0  9998
2 53083  97.6589  35.8261 0001483  63.6482 232.7091 15.51769727  4373
STARLINK-4319           
1 53084U 22077AT  22216.16667824 -.00126547  00000+0 -21520-2 0  9999
2 53084  97.6571  35.7434 0001347  90.5335 181.8585 15.51824142  4365
STARLINK-4324           
1 53085U 22077AU  22216.16667824 -.00049645  00000+0 -83525-3 0  9997
2 53085  97.6567  35.7426 0001825  71.1199 203.0419 15.51817446  4368
STARLINK-4318           
1 53086U 22077AV  22216.16667824 -.00049998  00000+0 -84142-3 0  9995
2 53086  97.6558  35.7414 0001781  84.9034 188.3983 15.51811921  4360
STARLINK-4329           
1 53087U 22077AW  22216.16667824 -.00050011  00000+0 -84166-3 0  9990
2 53087  97.6567  35.7412 0001752  76.4102 199.1989 15.51811428  4367
STARLINK-4333           
1 53088U 22077AX  22216.16667824 -.00048732  00000+0 -81937-3 0  9991
2 53088  97.6567  35.7398 0001620  74.7935 200.2915 15.51831714  4363
FALCON 9 DEB            
1 53089U 22077AY  22216.04061645  .00130282  86247-5  39169-3 0  9991
2 53089  97.6736  36.5272 0008158 178.8663 181.2630 15.92246531  3812
FALCON 9 DEB            
1 53090U 22077AZ  22215.71826713  .00141181  97726-5  41074-3 0  9993
2 53090  97.6704  36.1786 0005996 171.8143 188.3230 15.92899987  3765
FALCON 9 DEB            
1 53091U 22077BA  22215.44729125  .00154381  11422-4  40866-3 0  9995
2 53091  97.6685  35.9090 0009529 163.5573 196.6013 15.94636982  3723
FALCON 9 DEB            
1 53092U 22077BB  22215.44345532  .00150889  11035-4  39592-3 0  9995
2 53092  97.6693  35.9129 0009321 150.3844 209.7960 15.94807895  3721
TIANLIAN 2-03           
1 53100U 22078A   22215.89725844  .00000081  00000+0  00000+0 0  9994
2 53100   2.9730 284.7729 0002449 191.2089 170.1156  1.00273445   388
CZ-3B R/B               
1 53101U 22078B   22214.91481708  .00038995  80359-6  94234-3 0  9998
2 53101  27.1300 167.4309 7234514 187.4712 148.4768  2.38579995   512
LARES-2                 
1 53105U 22080A   22215.50201548 -.00000002  00000+0  00000+0 0  9994
2 53105  70.1542  70.1720 0005630 279.2946  80.7236  6.38965209  1347
MTCUBE 2 (ROBUSTA 1F)   
1 53106U 22080B   22211.33861881 -.00000003  00000+0  00000+0 0  9995
2 53106  70.1538  71.5470 0009035 255.0213 104.9458  6.42558285  1074
ASTROBIOCUBESAT         
1 53107U 22080C   22211.19450190 -.00000003  00000+0  00000+0 0  9997
2 53107  70.1558  71.6142 0012997 246.8630 113.0689  6.42110697   961
TRISAT-R                
1 53108U 22080D   22211.19341476 -.00000003  00000+0  00000+0 0  9994
2 53108  70.1600  71.6179 0012832 256.8385 103.0842  6.42152317   972
GREENCUBE               
1 53109U 22080E   22215.54011897 -.00000003  00000+0  00000+0 0  9999
2 53109  70.1370  69.8912 0009138 239.0186 120.9577  6.42583820  1238
2022-080F               
1 53110U 22080F   22210.25111416 -.00000003  00000+0  00000+0 0  9992
2 53110  70.1738  71.9397 0102404 131.0692 230.8485  6.42502823   896
CELESTA                 
1 53111U 22080G   22209.16019017 -.00000003  00000+0  00000+0 0  9995
2 53111  70.1517  72.3224 0015664 220.2144 139.7964  6.42532870   816
2022-080H               
1 53112U 22080H   22207.29133216 -.00000003  00000+0  00000+0 0  9996
2 53112  70.1386  72.9501 0009345 259.2772 100.6820  6.42593043   708
DRAGON CRS-25           
1 53113U 22081A   22215.51986059  .00005437  00000+0  10240-3 0  9999
2 53113  51.6439 102.1216 0005338  78.3696 343.6532 15.50219581352524
SUPERVIEW NEO-2 O1      
1 53128U 22082A   22216.26512731  .00001930  00000+0  80976-4 0  9999
2 53128  97.3848 223.9901 0012682 191.4391 358.1749 15.24632960  2943
CZ-2C DEB               
1 53129U 22082B   22216.02529665  .00011286  00000+0  44689-3 0  9993
2 53129  97.3855 223.7731 0013144 197.9367 162.1409 15.25515829  2917
